ATLAS CENTAUR 2         
1 00694U 63047A   26036.16718493  .00001702  00000+0  19590-3 0  9991
2 00694  30.3551  17.3799 0548110 153.7070 209.2462 14.11977027127022
THOR AGENA D R/B        
1 00733U 64002A   26036.63556470  .00000371  00000+0  14953-3 0  9993
2 00733  99.1228  48.2277 0032775 353.6092   6.4668 14.34000077233709
SL-3 R/B                
1 00877U 64053B   26036.52747786  .00000547  00000+0  13014-3 0  9990
2 00877  65.0763  65.5271 0078130 302.4391  56.9169 14.61334299262095
SL-8 R/B                
1 02802U 67045B   26036.32647396  .00000373  00000+0  11069-3 0  9993
2 02802  74.0099  48.5274 0062975  63.0373 297.7197 14.45591152 84342
SL-8 R/B                
1 03230U 68040B   26036.69611881  .00006412  00000+0  47567-3 0  9997
2 03230  74.0322  19.0502 0025491 212.2010 147.7623 15.03012321 85207
OAO 2                   
1 03597U 68110A   26036.56564278  .00000467  00000+0  13097-3 0  9999
2 03597  34.9935  84.5745 0006045 297.8212  62.1866 14.47288204 14440
ISIS 1                  
1 03669U 69009A   26036.58927833  .00000505  00000+0  34877-3 0  9991
2 03669  88.4553 158.8062 1707837 153.9309 215.8968 11.30400167344904
SERT 2                  
1 04327U 70009A   26036.73991435  .00000050  00000+0  12486-3 0  9998
2 04327  99.2720 341.5891 0004018 243.7696 176.0114 13.58726458775556
SL-3 R/B                
1 05118U 71028B   26036.64400134  .00045512  00000+0  58680-3 0  9998
2 05118  81.2352  91.5368 0017686  47.1604 313.1130 15.58618189983677
ASTEX 1                 
1 05560U 71089A   26036.68014358  .00000937  00000+0  23843-3 0  9994
2 05560  92.7153 141.4032 0015362 184.5756 175.5312 14.50731612857669
SL-8 R/B                
1 05730U 71119B   26036.63988730  .00013999  00000+0  72589-3 0  9999
2 05730  73.8851 235.5847 0554205 208.7885 148.1631 14.36888457650887
OAO 3 (COPERNICUS)      
1 06153U 72065A   26036.61291755  .00000656  00000+0  13896-3 0  9994
2 06153  35.0053 120.0635 0007225 260.0669 260.8968 14.59969409841508
