CCSDS_OMM_VERS = 2.0
CREATION_DATE  = 
ORIGINATOR     = 

OBJECT_NAME    = ATLAS CENTAUR 2
OBJECT_ID      = 1963-047A
CENTER_NAME    = EARTH
REF_FRAME      = TEME
TIME_SYSTEM    = UTC
MEAN_ELEMENT_THEORY = SGP/SGP4

EPOCH          = 2026-02-05T04:00:44.777952
MEAN_MOTION    = 14.11977027
ECCENTRICITY   = .054811
INCLINATION    = 30.3551
RA_OF_ASC_NODE = 17.3799
ARG_OF_PERICENTER = 153.7070
MEAN_ANOMALY   = 209.2462

EPHEMERIS_TYPE = 0
CLASSIFICATION_TYPE = U
NORAD_CAT_ID   = 694
ELEMENT_SET_NO = 999
REV_AT_EPOCH   = 12702
BSTAR          = .1959E-3
MEAN_MOTION_DOT = .1702E-4
MEAN_MOTION_DDOT = 0

CCSDS_OMM_VERS = 2.0
CREATION_DATE  = 
ORIGINATOR     = 

OBJECT_NAME    = THOR AGENA D R/B
OBJECT_ID      = 1964-002A
CENTER_NAME    = EARTH
REF_FRAME      = TEME
TIME_SYSTEM    = UTC
MEAN_ELEMENT_THEORY = SGP/SGP4

EPOCH          = 2026-02-05T15:15:12.790080
MEAN_MOTION    = 14.34000077
ECCENTRICITY   = .00327757
INCLINATION    = 99.1228
RA_OF_ASC_NODE = 48.2277
ARG_OF_PERICENTER = 353.6092
MEAN_ANOMALY   = 6.4668

EPHEMERIS_TYPE = 0
CLASSIFICATION_TYPE = U
NORAD_CAT_ID   = 733
ELEMENT_SET_NO = 999
REV_AT_EPOCH   = 23370
BSTAR          = .149526E-3
MEAN_MOTION_DOT = .371E-5
MEAN_MOTION_DDOT = 0

CCSDS_OMM_VERS = 2.0
CREATION_DATE  = 
ORIGINATOR     = 

OBJECT_NAME    = SL-3 R/B
OBJECT_ID      = 1964-053B
CENTER_NAME    = EARTH
REF_FRAME      = TEME
TIME_SYSTEM    = UTC
MEAN_ELEMENT_THEORY = SGP/SGP4

EPOCH          = 2026-02-05T12:39:34.087104
MEAN_MOTION    = 14.61334299
ECCENTRICITY   = .00781305
INCLINATION    = 65.0763
RA_OF_ASC_NODE = 65.5271
ARG_OF_PERICENTER = 302.4391
MEAN_ANOMALY   = 56.9169

EPHEMERIS_TYPE = 0
CLASSIFICATION_TYPE = U
NORAD_CAT_ID   = 877
ELEMENT_SET_NO = 999
REV_AT_EPOCH   = 26209
BSTAR          = .13014248E-3
MEAN_MOTION_DOT = .547E-5
MEAN_MOTION_DDOT = 0

CCSDS_OMM_VERS = 2.0
CREATION_DATE  = 
ORIGINATOR     = 

OBJECT_NAME    = SL-8 R/B
OBJECT_ID      = 1967-045B
CENTER_NAME    = EARTH
REF_FRAME      = TEME
TIME_SYSTEM    = UTC
MEAN_ELEMENT_THEORY = SGP/SGP4

EPOCH          = 2026-02-05T07:50:07.350144
MEAN_MOTION    = 14.45591152
ECCENTRICITY   = .0062975
INCLINATION    = 74.0099
RA_OF_ASC_NODE = 48.5274
ARG_OF_PERICENTER = 63.0373
MEAN_ANOMALY   = 297.7197

EPHEMERIS_TYPE = 0
CLASSIFICATION_TYPE = U
NORAD_CAT_ID   = 2802
ELEMENT_SET_NO = 999
REV_AT_EPOCH   = 8434
BSTAR          = .11069E-3
MEAN_MOTION_DOT = .373E-5
MEAN_MOTION_DDOT = 0

CCSDS_OMM_VERS = 2.0
CREATION_DATE  = 
ORIGINATOR     = 

OBJECT_NAME    = SL-8 R/B
OBJECT_ID      = 1968-040B
CENTER_NAME    = EARTH
REF_FRAME      = TEME
TIME_SYSTEM    = UTC
MEAN_ELEMENT_THEORY = SGP/SGP4

EPOCH          = 2026-02-05T16:42:24.665184
MEAN_MOTION    = 15.03012321
ECCENTRICITY   = .00254918
INCLINATION    = 74.0322
RA_OF_ASC_NODE = 19.0502
ARG_OF_PERICENTER = 212.2010
MEAN_ANOMALY   = 147.7623

EPHEMERIS_TYPE = 0
CLASSIFICATION_TYPE = U
NORAD_CAT_ID   = 3230
ELEMENT_SET_NO = 999
REV_AT_EPOCH   = 8520
BSTAR          = .47566805E-3
MEAN_MOTION_DOT = .6412E-4
MEAN_MOTION_DDOT = 0

CCSDS_OMM_VERS = 2.0
CREATION_DATE  = 
ORIGINATOR     = 

OBJECT_NAME    = OAO 2
OBJECT_ID      = 1968-110A
CENTER_NAME    = EARTH
REF_FRAME      = TEME
TIME_SYSTEM    = UTC
MEAN_ELEMENT_THEORY = SGP/SGP4

EPOCH          = 2026-02-05T13:34:31.536192
MEAN_MOTION    = 14.47288204
ECCENTRICITY   = .00060457
INCLINATION    = 34.9935
RA_OF_ASC_NODE = 84.5745
ARG_OF_PERICENTER = 297.8212
MEAN_ANOMALY   = 62.1866

EPHEMERIS_TYPE = 0
CLASSIFICATION_TYPE = U
NORAD_CAT_ID   = 3597
ELEMENT_SET_NO = 999
REV_AT_EPOCH   = 1444
BSTAR          = .13097402E-3
MEAN_MOTION_DOT = .467E-5
MEAN_MOTION_DDOT = 0

CCSDS_OMM_VERS = 2.0
CREATION_DATE  = 
ORIGINATOR     = 

OBJECT_NAME    = ISIS 1
OBJECT_ID      = 1969-009A
CENTER_NAME    = EARTH
REF_FRAME      = TEME
TIME_SYSTEM    = UTC
MEAN_ELEMENT_THEORY = SGP/SGP4

EPOCH          = 2026-02-05T14:08:33.647712
MEAN_MOTION    = 11.30400167
ECCENTRICITY   = .17078372
INCLINATION    = 88.4553
RA_OF_ASC_NODE = 158.8062
ARG_OF_PERICENTER = 153.9309
MEAN_ANOMALY   = 215.8968

EPHEMERIS_TYPE = 0
CLASSIFICATION_TYPE = U
NORAD_CAT_ID   = 3669
ELEMENT_SET_NO = 999
REV_AT_EPOCH   = 34490
BSTAR          = .34876517E-3
MEAN_MOTION_DOT = .505E-5
MEAN_MOTION_DDOT = 0

CCSDS_OMM_VERS = 2.0
CREATION_DATE  = 
ORIGINATOR     = 

OBJECT_NAME    = SERT 2
OBJECT_ID      = 1970-009A
CENTER_NAME    = EARTH
REF_FRAME      = TEME
TIME_SYSTEM    = UTC
MEAN_ELEMENT_THEORY = SGP/SGP4

EPOCH          = 2026-02-05T17:45:28.599840
MEAN_MOTION    = 13.58726458
ECCENTRICITY   = .00040184
INCLINATION    = 99.2720
RA_OF_ASC_NODE = 341.5891
ARG_OF_PERICENTER = 243.7696
MEAN_ANOMALY   = 176.0114

EPHEMERIS_TYPE = 0
CLASSIFICATION_TYPE = U
NORAD_CAT_ID   = 4327
ELEMENT_SET_NO = 999
REV_AT_EPOCH   = 77555
BSTAR          = .12485741E-3
MEAN_MOTION_DOT = .5E-6
MEAN_MOTION_DDOT = 0

CCSDS_OMM_VERS = 2.0
CREATION_DATE  = 
ORIGINATOR     = 

OBJECT_NAME    = SL-3 R/B
OBJECT_ID      = 1971-028B
CENTER_NAME    = EARTH
REF_FRAME      = TEME
TIME_SYSTEM    = UTC
MEAN_ELEMENT_THEORY = SGP/SGP4

EPOCH          = 2026-02-05T15:27:21.715776
MEAN_MOTION    = 15.58618189
ECCENTRICITY   = .00176863
INCLINATION    = 81.2352
RA_OF_ASC_NODE = 91.5368
ARG_OF_PERICENTER = 47.1604
MEAN_ANOMALY   = 313.1130

EPHEMERIS_TYPE = 0
CLASSIFICATION_TYPE = U
NORAD_CAT_ID   = 5118
ELEMENT_SET_NO = 999
REV_AT_EPOCH   = 98367
BSTAR          = .58679558E-3
MEAN_MOTION_DOT = .45512E-3
MEAN_MOTION_DDOT = 0

CCSDS_OMM_VERS = 2.0
CREATION_DATE  = 
ORIGINATOR     = 

OBJECT_NAME    = ASTEX 1
OBJECT_ID      = 1971-089A
CENTER_NAME    = EARTH
REF_FRAME      = TEME
TIME_SYSTEM    = UTC
MEAN_ELEMENT_THEORY = SGP/SGP4

EPOCH          = 2026-02-05T16:19:24.405312
MEAN_MOTION    = 14.50731612
ECCENTRICITY   = .00153625
INCLINATION    = 92.7153
RA_OF_ASC_NODE = 141.4032
ARG_OF_PERICENTER = 184.5756
MEAN_ANOMALY   = 175.5312

EPHEMERIS_TYPE = 0
CLASSIFICATION_TYPE = U
NORAD_CAT_ID   = 5560
ELEMENT_SET_NO = 999
REV_AT_EPOCH   = 85766
BSTAR          = .23842902E-3
MEAN_MOTION_DOT = .937E-5
MEAN_MOTION_DDOT = 0

CCSDS_OMM_VERS = 2.0
CREATION_DATE  = 
ORIGINATOR     = 

OBJECT_NAME    = SL-8 R/B
OBJECT_ID      = 1971-119B
CENTER_NAME    = EARTH
REF_FRAME      = TEME
TIME_SYSTEM    = UTC
MEAN_ELEMENT_THEORY = SGP/SGP4

EPOCH          = 2026-02-05T15:21:26.262720
MEAN_MOTION    = 14.36888457
ECCENTRICITY   = .05542051
INCLINATION    = 73.8851
RA_OF_ASC_NODE = 235.5847
ARG_OF_PERICENTER = 208.7885
MEAN_ANOMALY   = 148.1631

EPHEMERIS_TYPE = 0
CLASSIFICATION_TYPE = U
NORAD_CAT_ID   = 5730
ELEMENT_SET_NO = 999
REV_AT_EPOCH   = 65088
BSTAR          = .72589383E-3
MEAN_MOTION_DOT = .13999E-3
MEAN_MOTION_DDOT = 0

CCSDS_OMM_VERS = 2.0
CREATION_DATE  = 
ORIGINATOR     = 

OBJECT_NAME    = OAO 3 (COPERNICUS)
OBJECT_ID      = 1972-065A
CENTER_NAME    = EARTH
REF_FRAME      = TEME
TIME_SYSTEM    = UTC
MEAN_ELEMENT_THEORY = SGP/SGP4

EPOCH          = 2026-02-05T14:42:36.076320
MEAN_MOTION    = 14.59969409
ECCENTRICITY   = .00072258
INCLINATION    = 35.0053
RA_OF_ASC_NODE = 120.0635
ARG_OF_PERICENTER = 260.0669
MEAN_ANOMALY   = 260.8968

EPHEMERIS_TYPE = 0
CLASSIFICATION_TYPE = U
NORAD_CAT_ID   = 6153
ELEMENT_SET_NO = 999
REV_AT_EPOCH   = 84150
BSTAR          = .13895707E-3
MEAN_MOTION_DOT = .656E-5
MEAN_MOTION_DDOT = 0

